NORAD_CAT_ID,OBJECT_NAME,OBJECT_TYPE,EPOCH,MEAN_MOTION,ECCENTRICITY,INCLINATION,RA_OF_ASC_NODE,ARG_OF_PERICENTER,MEAN_ANOMALY,BSTAR,MEAN_MOTION_DOT,MEAN_MOTION_DDOT,TLE_LINE0,TLE_LINE1,TLE_LINE2,SEMIMAJOR_AXIS,PERIOD,APOGEE,PERIGEE,DECAYED
53408.0,STARLINK-4491,PAYLOAD,2023-11-23 20:04:11,15.0881891,0.0001021,53.2163,270.9028,92.3316,267.7793,-0.00016169,-2.859e-05,0.0,0 STARLINK-4491,1 53408U 22097W   23327.83624497 -.00002859  00000-0 -16169-3 0  9992,2 53408  53.2163 270.9028 0001021  92.3316 267.7793 15.08818910 72313,6917.945,95.439,540.516,539.104,0.0
53408.0,STARLINK-4491,PAYLOAD,2023-11-24 04:01:07,15.08834655,0.0001505,53.2167,269.4209,67.8242,292.291,0.0011289,0.00017721,0.0,0 STARLINK-4491,1 53408U 22097W   23328.16745023  .00017721  00000-0  11289-2 0  9997,2 53408  53.2167 269.4209 0001505  67.8242 292.2910 15.08834655 71871,6917.897,95.438,540.803,538.721,0.0
53408.0,STARLINK-4491,PAYLOAD,2023-11-24 19:54:59,15.08845222,0.000194,53.2159,266.4511,60.305,299.8135,0.00067856,0.00010529,0.0,0 STARLINK-4491,1 53408U 22097W   23328.82985290  .00010529  00000-0  67856-3 0  9993,2 53408  53.2159 266.4511 0001940  60.3050 299.8135 15.08845222 71978,6917.864,95.437,541.071,538.387,0.0
53408.0,STARLINK-4491,PAYLOAD,2023-11-25 05:27:17,15.08864216,0.0001514,53.216,264.6608,77.2929,282.8233,0.0011355,0.00017842,0.0,0 STARLINK-4491,1 53408U 22097W   23329.22728715  .00017842  00000-0  11355-2 0  9992,2 53408  53.2160 264.6608 0001514  77.2929 282.8233 15.08864216 72523,6917.806,95.436,540.719,538.624,0.0
53408.0,STARLINK-4491,PAYLOAD,2023-11-26 02:07:17,15.08880973,0.0001854,53.2162,260.7915,85.5468,274.5736,0.0016029,0.00025343,0.0,0 STARLINK-4491,1 53408U 22097W   23330.08839818  .00025343  00000-0  16029-2 0  9993,2 53408  53.2162 260.7915 0001854  85.5468 274.5736 15.08880973 72164,6917.755,95.435,540.903,538.338,0.0
53408.0,STARLINK-4491,PAYLOAD,2023-11-26 22:47:19,15.08830828,0.0001786,53.2175,256.9261,118.2815,241.8358,0.00022726,3.33e-05,0.0,0 STARLINK-4491,1 53408U 22097W   23330.94952624  .00003330  00000-0  22726-3 0  9993,2 53408  53.2175 256.9261 0001786 118.2815 241.8358 15.08830828 72782,6917.908,95.438,541.009,538.538,0.0
53408.0,STARLINK-4491,PAYLOAD,2023-11-27 01:58:05,15.08820829,0.0001769,53.2174,256.3312,122.3635,237.7528,-9.2149e-05,-1.754e-05,0.0,0 STARLINK-4491,1 53408U 22097W   23331.08200899 -.00001754  00000-0 -92149-4 0  9996,2 53408  53.2174 256.3312 0001769 122.3635 237.7528 15.08820829 72311,6917.939,95.439,541.028,538.58,0.0
53408.0,STARLINK-4491,PAYLOAD,2023-11-27 19:27:20,15.08835694,0.0001768,53.2167,253.0619,124.949,235.1668,0.00044266,6.763e-05,0.0,0 STARLINK-4491,1 53408U 22097W   23331.81065386  .00006763  00000-0  44266-3 0  9996,2 53408  53.2167 253.0619 0001768 124.9490 235.1668 15.08835694 72428,6917.894,95.438,540.982,538.535,0.0
53408.0,STARLINK-4491,PAYLOAD,2023-11-27 22:38:06,15.08844654,0.0001583,53.2166,252.4695,110.4064,249.7098,0.00083117,0.00012966,0.0,0 STARLINK-4491,1 53408U 22097W   23331.94313383  .00012966  00000-0  83117-3 0  9993,2 53408  53.2166 252.4695 0001583 110.4064 249.7098 15.08844654 72936,6917.866,95.437,540.826,538.636,0.0
53408.0,STARLINK-4491,PAYLOAD,2023-11-28 04:59:38,15.08869342,0.0001659,53.2165,251.2787,113.7979,246.3187,0.0015109,0.00023859,0.0,0 STARLINK-4491,1 53408U 22097W   23332.20808894  .00023859  00000-0  15109-2 0  9997,2 53408  53.2165 251.2787 0001659 113.7979 246.3187 15.08869342 72482,6917.791,95.436,540.803,538.508,0.0
53408.0,STARLINK-4491,PAYLOAD,2023-11-28 19:18:07,15.0885217,0.0001948,53.2163,248.6016,103.9315,256.1894,0.0010046,0.00015742,0.0,0 STARLINK-4491,1 53408U 22097W   23332.80425155  .00015742  00000-0  10046-2 0  9995,2 53408  53.2163 248.6016 0001948 103.9315 256.1894 15.08852170 72576,6917.843,95.437,541.056,538.361,0.0
53408.0,STARLINK-4491,PAYLOAD,2023-11-29 03:15:02,15.08857989,0.0001314,53.2161,247.1164,90.492,269.6223,0.0014444,0.00022786,0.0,0 STARLINK-4491,1 53408U 22097W   23333.13544954  .00022786  00000-0  14444-2 0  9993,2 53408  53.2161 247.1164 0001314  90.4920 269.6223 15.08857989 73110,6917.825,95.436,540.599,538.781,0.0
53408.0,STARLINK-4491,PAYLOAD,2023-11-30 03:05:50,15.08855564,0.0001402,53.2156,242.6545,99.2085,260.9065,0.0013551,0.00021353,0.0,0 STARLINK-4491,1 53408U 22097W   23334.12905111  .00021353  00000-0  13551-2 0  9996,2 53408  53.2156 242.6545 0001402  99.2085 260.9065 15.08855564 72770,6917.833,95.437,540.668,538.728,0.0
53408.0,STARLINK-4491,PAYLOAD,2023-12-01 02:56:37,15.08839597,0.0001137,53.2155,238.1954,91.507,268.6052,0.0011032,0.00017313,0.0,0 STARLINK-4491,1 53408U 22097W   23335.12265998  .00017313  00000-0  11032-2 0  9992,2 53408  53.2155 238.1954 0001137  91.5070 268.6052 15.08839597 72923,6917.882,95.438,540.533,538.96,0.0
53408.0,STARLINK-4491,PAYLOAD,2023-12-01 22:01:14,15.08864721,0.0001189,53.2149,234.6241,95.0609,265.0519,0.0010875,0.00017074,0.0,0 STARLINK-4491,1 53408U 22097W   23335.91753344  .00017074  00000-0  10875-2 0  9994,2 53408  53.2149 234.6241 0001189  95.0609 265.0519 15.08864721 73534,6917.805,95.436,540.492,538.847,0.0
53408.0,STARLINK-4491,PAYLOAD,2023-12-02 01:12:00,15.08891926,0.0001223,53.215,234.0301,96.7343,263.3789,0.0022424,0.00035631,0.0,0 STARLINK-4491,1 53408U 22097W   23336.05000853  .00035631  00000-0  22424-2 0  9992,2 53408  53.2150 234.0301 0001223  96.7343 263.3789 15.08891926 73064,6917.722,95.434,540.433,538.741,0.0
53408.0,STARLINK-4491,PAYLOAD,2023-12-02 02:47:23,15.0892227,0.0001191,53.2149,233.7324,98.5388,261.5739,0.0045627,0.00073248,0.0,0 STARLINK-4491,1 53408U 22097W   23336.11624656  .00073248  00000-0  45627-2 0  9998,2 53408  53.2149 233.7324 0001191  98.5388 261.5739 15.08922270 73079,6917.629,95.432,540.318,538.67,0.0
53408.0,STARLINK-4491,PAYLOAD,2023-12-02 21:52:01,15.08829396,0.0001233,53.2159,230.1621,106.6251,253.4876,0.00029505,4.41e-05,0.0,0 STARLINK-4491,1 53408U 22097W   23336.91113417  .00004410  00000-0  29505-3 0  9997,2 53408  53.2159 230.1621 0001233 106.6251 253.4876 15.08829396 73682,6917.913,95.438,540.631,538.925,0.0
53408.0,STARLINK-4491,PAYLOAD,2023-12-03 02:38:11,15.08831582,0.0001189,53.2149,229.2739,113.0327,247.0791,-3.6959e-05,-8.76e-06,0.0,0 STARLINK-4491,1 53408U 22097W   23337.10985546 -.00000876  00000-0 -36959-4 0  9995,2 53408  53.2149 229.2739 0001189 113.0327 247.0791 15.08831582 73221,6917.906,95.438,540.594,538.949,0.0
53408.0,STARLINK-4491,PAYLOAD,2023-12-03 20:07:26,15.08825574,0.000131,53.2149,226.0031,108.3349,251.7786,0.00016576,2.35e-05,0.0,0 STARLINK-4491,1 53408U 22097W   23337.83850630  .00002350  00000-0  16576-3 0  9999,2 53408  53.2149 226.0031 0001310 108.3349 251.7786 15.08825574 73330,6917.924,95.438,540.696,538.883,0.0
53408.0,STARLINK-4491,PAYLOAD,2023-12-04 02:28:59,15.08836056,0.0001365,53.2157,224.8127,101.2233,258.8912,-1.2589e-05,-4.88e-06,0.0,0 STARLINK-4491,1 53408U 22097W   23338.10346398 -.00000488  00000-0 -12589-4 0  9994,2 53408  53.2157 224.8127 0001365 101.2233 258.8912 15.08836056 73375,6917.892,95.438,540.702,538.813,0.0
53408.0,STARLINK-4491,PAYLOAD,2023-12-05 02:19:45,15.08851939,0.0001447,53.2159,220.3521,116.131,243.9831,0.00046167,7.07e-05,0.0,0 STARLINK-4491,1 53408U 22097W   23339.09705931  .00007070  00000-0  46167-3 0  9995,2 53408  53.2159 220.3521 0001447 116.1310 243.9831 15.08851939 73527,6917.844,95.437,540.71,538.708,0.0
53408.0,STARLINK-4491,PAYLOAD,2023-12-07 00:25:56,15.08837907,0.0001343,53.2161,211.7294,111.1893,248.9242,-5.8629e-05,-1.221e-05,0.0,0 STARLINK-4491,1 53408U 22097W   23341.01802004 -.00001221  00000-0 -58629-4 0  9990,2 53408  53.2161 211.7294 0001343 111.1893 248.9242 15.08837907 73819,6917.887,95.438,540.681,538.823,0.0
53408.0,STARLINK-4491,PAYLOAD,2023-12-08 00:16:44,15.08838674,0.0001285,53.2159,207.2683,111.4785,248.6344,8.4505e-06,-1.53e-06,0.0,0 STARLINK-4491,1 53408U 22097W   23342.01162159 -.00000153  00000-0  84505-5 0  9996,2 53408  53.2159 207.2683 0001285 111.4785 248.6344 15.08838674 74459,6917.884,95.438,540.638,538.86,0.0
53408.0,STARLINK-4491,PAYLOAD,2023-12-10 14:16:46,15.0884226,0.0001436,53.2149,195.6725,88.4467,271.6689,7.8101e-05,9.55e-06,0.0,0 STARLINK-4491,1 53408U 22097W   23344.59498286  .00000955  00000-0  78101-4 0  9997,2 53408  53.2149 195.6725 0001436  88.4467 271.6689 15.08842260 74840,6917.873,95.437,540.732,538.745,0.0
53408.0,STARLINK-4491,PAYLOAD,2023-12-10 19:02:55,15.08842346,0.0001352,53.2162,194.7789,93.4773,266.6374,5.5646e-05,5.98e-06,0.0,0 STARLINK-4491,1 53408U 22097W   23344.79370256  .00000598  00000-0  55646-4 0  9997,2 53408  53.2162 194.7789 0001352  93.4773 266.6374 15.08842346 74387,6917.873,95.437,540.674,538.803,0.0
53408.0,STARLINK-4491,PAYLOAD,2023-12-11 20:29:05,15.08842258,0.0001363,53.2166,190.0218,91.354,268.7608,0.00010734,1.421e-05,0.0,0 STARLINK-4491,1 53408U 22097W   23345.85353902  .00001421  00000-0  10734-3 0  9998,2 53408  53.2166 190.0218 0001363  91.3540 268.7608 15.08842258 75036,6917.873,95.437,540.681,538.796,0.0
53408.0,STARLINK-4491,PAYLOAD,2023-12-12 20:19:53,15.08839889,0.0001369,53.2161,185.5609,80.6506,279.4641,5.8642e-05,6.45e-06,0.0,0 STARLINK-4491,1 53408U 22097W   23346.84714315  .00000645  00000-0  58642-4 0  9995,2 53408  53.2161 185.5609 0001369  80.6506 279.4641 15.08839889 74696,6917.881,95.438,540.693,538.799,0.0
53408.0,STARLINK-4491,PAYLOAD,2023-12-13 20:10:42,15.08821424,0.0001416,53.2158,181.1,88.6882,271.4273,-0.00011191,-2.068e-05,0.0,0 STARLINK-4491,1 53408U 22097W   23347.84076481 -.00002068  00000-0 -11191-3 0  9991,2 53408  53.2158 181.1000 0001416  88.6882 271.4273 15.08821424 74843,6917.937,95.439,540.782,538.823,0.0
53408.0,STARLINK-4491,PAYLOAD,2023-12-14 18:26:05,15.08829998,0.0001303,53.2156,176.939,87.7785,272.3357,3.0194e-05,1.93e-06,0.0,0 STARLINK-4491,1 53408U 22097W   23348.76812419  .00000193  00000-0  30194-4 0  9992,2 53408  53.2156 176.9390 0001303  87.7785 272.3357 15.08829998 74984,6917.911,95.438,540.677,538.875,0.0
